CCSDS_OMM_VERS = 2.0
CREATION_DATE  = 
ORIGINATOR     = 

OBJECT_NAME    = STARLINK-36099
OBJECT_ID      = 2025-278G
CENTER_NAME    = EARTH
REF_FRAME      = TEME
TIME_SYSTEM    = UTC
MEAN_ELEMENT_THEORY = SGP/SGP4

EPOCH          = 2025-12-27T17:34:34.233024
MEAN_MOTION    = 15.50610104
ECCENTRICITY   = .00029513
INCLINATION    = 43.0011
RA_OF_ASC_NODE = 162.5224
ARG_OF_PERICENTER = 282.0650
MEAN_ANOMALY   = 77.9879

EPHEMERIS_TYPE = 0
CLASSIFICATION_TYPE = U
NORAD_CAT_ID   = 66797
ELEMENT_SET_NO = 999
REV_AT_EPOCH   = 418
BSTAR          = .20267382E-2
MEAN_MOTION_DOT = .120548E-2
MEAN_MOTION_DDOT = 0

CCSDS_OMM_VERS = 2.0
CREATION_DATE  = 
ORIGINATOR     = 

OBJECT_NAME    = STARLINK-36041
OBJECT_ID      = 2025-278H
CENTER_NAME    = EARTH
REF_FRAME      = TEME
TIME_SYSTEM    = UTC
MEAN_ELEMENT_THEORY = SGP/SGP4

EPOCH          = 2025-12-28T21:23:43.063296
MEAN_MOTION    = 15.50602168
ECCENTRICITY   = .00015576
INCLINATION    = 42.9998
RA_OF_ASC_NODE = 155.7380
ARG_OF_PERICENTER = 270.4484
MEAN_ANOMALY   = 89.6198

EPHEMERIS_TYPE = 0
CLASSIFICATION_TYPE = U
NORAD_CAT_ID   = 66798
ELEMENT_SET_NO = 999
REV_AT_EPOCH   = 436
BSTAR          = .18032591E-2
MEAN_MOTION_DOT = .106993E-2
MEAN_MOTION_DDOT = 0

CCSDS_OMM_VERS = 2.0
CREATION_DATE  = 
ORIGINATOR     = 

OBJECT_NAME    = STARLINK-36044
OBJECT_ID      = 2025-278J
CENTER_NAME    = EARTH
REF_FRAME      = TEME
TIME_SYSTEM    = UTC
MEAN_ELEMENT_THEORY = SGP/SGP4

EPOCH          = 2025-12-28T18:17:42.290592
MEAN_MOTION    = 15.50614835
ECCENTRICITY   = .00032838
INCLINATION    = 42.9995
RA_OF_ASC_NODE = 156.4891
ARG_OF_PERICENTER = 289.7597
MEAN_ANOMALY   = 70.2909

EPHEMERIS_TYPE = 0
CLASSIFICATION_TYPE = U
NORAD_CAT_ID   = 66799
ELEMENT_SET_NO = 999
REV_AT_EPOCH   = 434
BSTAR          = .18538536E-2
MEAN_MOTION_DOT = .11011E-2
MEAN_MOTION_DDOT = 0

CCSDS_OMM_VERS = 2.0
CREATION_DATE  = 
ORIGINATOR     = 

OBJECT_NAME    = STARLINK-35996
OBJECT_ID      = 2025-278K
CENTER_NAME    = EARTH
REF_FRAME      = TEME
TIME_SYSTEM    = UTC
MEAN_ELEMENT_THEORY = SGP/SGP4

EPOCH          = 2025-12-28T00:00:02.000160
MEAN_MOTION    = 15.50579945
ECCENTRICITY   = .00016575
INCLINATION    = 42.9999
RA_OF_ASC_NODE = 160.9385
ARG_OF_PERICENTER = 269.8282
MEAN_ANOMALY   = 153.9178

EPHEMERIS_TYPE = 0
CLASSIFICATION_TYPE = U
NORAD_CAT_ID   = 66800
ELEMENT_SET_NO = 999
REV_AT_EPOCH   = 520
BSTAR          = -.67003956E-3
MEAN_MOTION_DOT = -.39454E-3
MEAN_MOTION_DDOT = 0

CCSDS_OMM_VERS = 2.0
CREATION_DATE  = 
ORIGINATOR     = 

OBJECT_NAME    = STARLINK-36080
OBJECT_ID      = 2025-278L
CENTER_NAME    = EARTH
REF_FRAME      = TEME
TIME_SYSTEM    = UTC
MEAN_ELEMENT_THEORY = SGP/SGP4

EPOCH          = 2025-12-28T22:00:01.999584
MEAN_MOTION    = 15.40664811
ECCENTRICITY   = .00020516
INCLINATION    = 42.9998
RA_OF_ASC_NODE = 155.6950
ARG_OF_PERICENTER = 323.0143
MEAN_ANOMALY   = 135.2648

EPHEMERIS_TYPE = 0
CLASSIFICATION_TYPE = U
NORAD_CAT_ID   = 66801
ELEMENT_SET_NO = 999
REV_AT_EPOCH   = 556
BSTAR          = .2567718E-2
MEAN_MOTION_DOT = .108367E-2
MEAN_MOTION_DDOT = 0

CCSDS_OMM_VERS = 2.0
CREATION_DATE  = 
ORIGINATOR     = 

OBJECT_NAME    = STARLINK-35604
OBJECT_ID      = 2025-278M
CENTER_NAME    = EARTH
REF_FRAME      = TEME
TIME_SYSTEM    = UTC
MEAN_ELEMENT_THEORY = SGP/SGP4

EPOCH          = 2025-12-28T10:33:25.333056
MEAN_MOTION    = 15.50669781
ECCENTRICITY   = .00047336
INCLINATION    = 42.9996
RA_OF_ASC_NODE = 158.3703
ARG_OF_PERICENTER = 284.9664
MEAN_ANOMALY   = 75.0672

EPHEMERIS_TYPE = 0
CLASSIFICATION_TYPE = U
NORAD_CAT_ID   = 66802
ELEMENT_SET_NO = 999
REV_AT_EPOCH   = 429
BSTAR          = .2090514E-2
MEAN_MOTION_DOT = .124711E-2
MEAN_MOTION_DDOT = 0

CCSDS_OMM_VERS = 2.0
CREATION_DATE  = 
ORIGINATOR     = 

OBJECT_NAME    = STARLINK-35565
OBJECT_ID      = 2025-278N
CENTER_NAME    = EARTH
REF_FRAME      = TEME
TIME_SYSTEM    = UTC
MEAN_ELEMENT_THEORY = SGP/SGP4

EPOCH          = 2025-12-28T22:00:01.999584
MEAN_MOTION    = 15.40621388
ECCENTRICITY   = .00015967
INCLINATION    = 42.9995
RA_OF_ASC_NODE = 155.9067
ARG_OF_PERICENTER = 272.1053
MEAN_ANOMALY   = 99.2429

EPHEMERIS_TYPE = 0
CLASSIFICATION_TYPE = U
NORAD_CAT_ID   = 66803
ELEMENT_SET_NO = 999
REV_AT_EPOCH   = 564
BSTAR          = .24436549E-2
MEAN_MOTION_DOT = .102892E-2
MEAN_MOTION_DDOT = 0

CCSDS_OMM_VERS = 2.0
CREATION_DATE  = 
ORIGINATOR     = 

OBJECT_NAME    = STARLINK-36038
OBJECT_ID      = 2025-278P
CENTER_NAME    = EARTH
REF_FRAME      = TEME
TIME_SYSTEM    = UTC
MEAN_ELEMENT_THEORY = SGP/SGP4

EPOCH          = 2025-12-28T22:00:01.999584
MEAN_MOTION    = 15.40625459
ECCENTRICITY   = .0001731
INCLINATION    = 42.9995
RA_OF_ASC_NODE = 155.8769
ARG_OF_PERICENTER = 269.2571
MEAN_ANOMALY   = 114.5317

EPHEMERIS_TYPE = 0
CLASSIFICATION_TYPE = U
NORAD_CAT_ID   = 66804
ELEMENT_SET_NO = 999
REV_AT_EPOCH   = 555
BSTAR          = .2397515E-2
MEAN_MOTION_DOT = .100932E-2
MEAN_MOTION_DDOT = 0

CCSDS_OMM_VERS = 2.0
CREATION_DATE  = 
ORIGINATOR     = 

OBJECT_NAME    = STARLINK-36049
OBJECT_ID      = 2025-278Q
CENTER_NAME    = EARTH
REF_FRAME      = TEME
TIME_SYSTEM    = UTC
MEAN_ELEMENT_THEORY = SGP/SGP4

EPOCH          = 2025-12-28T22:00:01.999584
MEAN_MOTION    = 15.40628425
ECCENTRICITY   = .00019476
INCLINATION    = 42.9996
RA_OF_ASC_NODE = 155.8154
ARG_OF_PERICENTER = 274.2153
MEAN_ANOMALY   = 134.4435

EPHEMERIS_TYPE = 0
CLASSIFICATION_TYPE = U
NORAD_CAT_ID   = 66805
ELEMENT_SET_NO = 999
REV_AT_EPOCH   = 556
BSTAR          = .24588407E-2
MEAN_MOTION_DOT = .103568E-2
MEAN_MOTION_DDOT = 0

CCSDS_OMM_VERS = 2.0
CREATION_DATE  = 
ORIGINATOR     = 

OBJECT_NAME    = STARLINK-36069
OBJECT_ID      = 2025-278R
CENTER_NAME    = EARTH
REF_FRAME      = TEME
TIME_SYSTEM    = UTC
MEAN_ELEMENT_THEORY = SGP/SGP4

EPOCH          = 2025-12-28T22:00:01.999584
MEAN_MOTION    = 15.40627771
ECCENTRICITY   = .00014161
INCLINATION    = 42.9999
RA_OF_ASC_NODE = 155.6649
ARG_OF_PERICENTER = 278.8511
MEAN_ANOMALY   = 191.9939

EPHEMERIS_TYPE = 0
CLASSIFICATION_TYPE = U
NORAD_CAT_ID   = 66806
ELEMENT_SET_NO = 999
REV_AT_EPOCH   = 535
BSTAR          = .25897791E-2
MEAN_MOTION_DOT = .109176E-2
MEAN_MOTION_DDOT = 0

CCSDS_OMM_VERS = 2.0
CREATION_DATE  = 
ORIGINATOR     = 

OBJECT_NAME    = STARLINK-36000
OBJECT_ID      = 2025-278S
CENTER_NAME    = EARTH
REF_FRAME      = TEME
TIME_SYSTEM    = UTC
MEAN_ELEMENT_THEORY = SGP/SGP4

EPOCH          = 2025-12-28T22:00:01.999584
MEAN_MOTION    = 15.44322963
ECCENTRICITY   = .00015361
INCLINATION    = 42.9996
RA_OF_ASC_NODE = 155.5879
ARG_OF_PERICENTER = 285.2204
MEAN_ANOMALY   = 217.5815

EPHEMERIS_TYPE = 0
CLASSIFICATION_TYPE = U
NORAD_CAT_ID   = 66807
ELEMENT_SET_NO = 999
REV_AT_EPOCH   = 561
BSTAR          = -.47311721E-1
MEAN_MOTION_DOT = -.1991337E-1
MEAN_MOTION_DDOT = 0

CCSDS_OMM_VERS = 2.0
CREATION_DATE  = 
ORIGINATOR     = 

OBJECT_NAME    = STARLINK-36071
OBJECT_ID      = 2025-278T
CENTER_NAME    = EARTH
REF_FRAME      = TEME
TIME_SYSTEM    = UTC
MEAN_ELEMENT_THEORY = SGP/SGP4

EPOCH          = 2025-12-28T22:00:01.999584
MEAN_MOTION    = 15.45659048
ECCENTRICITY   = .00014051
INCLINATION    = 43.0000
RA_OF_ASC_NODE = 155.5686
ARG_OF_PERICENTER = 284.9433
MEAN_ANOMALY   = 225.6924

EPHEMERIS_TYPE = 0
CLASSIFICATION_TYPE = U
NORAD_CAT_ID   = 66808
ELEMENT_SET_NO = 999
REV_AT_EPOCH   = 556
BSTAR          = -.45305543E-1
MEAN_MOTION_DOT = -.1996229E-1
MEAN_MOTION_DDOT = 0

