STARLINK-36099          
1 66797U 25278G   25361.73234066  .00120548  00000+0  20267-2 0  9995
2 66797  43.0011 162.5224 0002951 282.0650  77.9879 15.50610104  4181
STARLINK-36041          
1 66798U 25278H   25362.89147064  .00106993  00000+0  18033-2 0  9991
2 66798  42.9998 155.7380 0001557 270.4484  89.6198 15.50602168  4363
STARLINK-36044          
1 66799U 25278J   25362.76229503  .00110110  00000+0  18539-2 0  9994
2 66799  42.9995 156.4891 0003283 289.7597  70.2909 15.50614835  4340
STARLINK-35996          
1 66800U 25278K   25362.00002315 -.00039454  00000+0 -67004-3 0  9999
2 66800  42.9999 160.9385 0001657 269.8282 153.9178 15.50579945  5203
STARLINK-36080          
1 66801U 25278L   25362.91668981  .00108367  00000+0  25677-2 0  9994
2 66801  42.9998 155.6950 0002051 323.0143 135.2648 15.40664811  5560
STARLINK-35604          
1 66802U 25278M   25362.43987654  .00124711  00000+0  20905-2 0  9993
2 66802  42.9996 158.3703 0004733 284.9664  75.0672 15.50669781  4296
STARLINK-35565          
1 66803U 25278N   25362.91668981  .00102892  00000+0  24437-2 0  9996
2 66803  42.9995 155.9067 0001596 272.1053  99.2429 15.40621388  5645
STARLINK-36038          
1 66804U 25278P   25362.91668981  .00100932  00000+0  23975-2 0  9996
2 66804  42.9995 155.8769 0001731 269.2571 114.5317 15.40625459  5557
STARLINK-36049          
1 66805U 25278Q   25362.91668981  .00103568  00000+0  24588-2 0  9996
2 66805  42.9996 155.8154 0001947 274.2153 134.4435 15.40628425  5567
STARLINK-36069          
1 66806U 25278R   25362.91668981  .00109176  00000+0  25898-2 0  9993
2 66806  42.9999 155.6649 0001416 278.8511 191.9939 15.40627771  5354
STARLINK-36000          
1 66807U 25278S   25362.91668981 -.01991337  00000+0 -47312-1 0  9999
2 66807  42.9996 155.5879 0001536 285.2204 217.5815 15.44322963  5616
STARLINK-36071          
1 66808U 25278T   25362.91668981 -.01996229  00000+0 -45306-1 0  9996
2 66808  43.0000 155.5686 0001405 284.9433 225.6924 15.45659048  5569
